{
  "type": "FeatureCollection",
  "features": [
    {
      "type": "Feature",
      "properties": {
        "norad_id": 27954,
        "name": "GALAXY 13 (HORIZONS-1)",
        "group": "intelsat",
        "lat": -0.35866811632636386,
        "lon": 62.14241881630953,
        "alt_km": 35795.26068536933,
        "timestamp": "2025-12-08T08:59:00.439546+00:00",
        "meta_object_name": "GALAXY 13 (HORIZONS-1)",
        "meta_object_id": "2003-044A",
        "meta_epoch": "2025-12-07T18:03:27.057600",
        "meta_mean_motion": 1.00269087,
        "meta_eccentricity": 0.0001999,
        "meta_inclination": 0.9225,
        "meta_ra_of_asc_node": 86.5355,
        "meta_arg_of_pericenter": 158.8456,
        "meta_mean_anomaly": 312.265,
        "meta_ephemeris_type": 0,
        "meta_classification_type": "U",
        "meta_norad_cat_id": 27954,
        "meta_element_set_no": 999,
        "meta_rev_at_epoch": 4465,
        "meta_bstar": 0,
        "meta_mean_motion_dot": 1.36e-06,
        "meta_mean_motion_ddot": 0,
        "tle_line1": "1 27954U 03044A   25341.75239650  .00000136  00000+0  00000+0 0  9998",
        "tle_line2": "2 27954   0.9225  86.5355 0001999 158.8456 312.2650  1.00269087 44655"
      },
      "geometry": {
        "type": "Point",
        "coordinates": [
          62.14241881630953,
          -0.35866811632636386
        ]
      }
    },
    {
      "type": "Feature",
      "properties": {
        "norad_id": 28358,
        "name": "INTELSAT 10-02",
        "group": "intelsat",
        "lat": 0.0043561629165132605,
        "lon": -148.85722502996578,
        "alt_km": 35783.793362809585,
        "timestamp": "2025-12-08T08:59:00.439559+00:00",
        "meta_object_name": "INTELSAT 10-02",
        "meta_object_id": "2004-022A",
        "meta_epoch": "2025-12-07T22:11:23.013888",
        "meta_mean_motion": 1.00275173,
        "meta_eccentricity": 0.00012067,
        "meta_inclination": 0.0341,
        "meta_ra_of_asc_node": 72.1801,
        "meta_arg_of_pericenter": 214.154,
        "meta_mean_anomaly": 122.4724,
        "meta_ephemeris_type": 0,
        "meta_classification_type": "U",
        "meta_norad_cat_id": 28358,
        "meta_element_set_no": 999,
        "meta_rev_at_epoch": 7863,
        "meta_bstar": 0,
        "meta_mean_motion_dot": -7e-08,
        "meta_mean_motion_ddot": 0,
        "tle_line1": "1 28358U 04022A   25341.92457192 -.00000007  00000+0  00000+0 0  9994",
        "tle_line2": "2 28358   0.0341  72.1801 0001206 214.1540 122.4724  1.00275173 78633"
      },
      "geometry": {
        "type": "Point",
        "coordinates": [
          -148.85722502996578,
          0.0043561629165132605
        ]
      }
    },
    {
      "type": "Feature",
      "properties": {
        "norad_id": 28626,
        "name": "XM-3 (RHYTHM)",
        "group": "intelsat",
        "lat": -0.1587417141650456,
        "lon": -12.827555055878468,
        "alt_km": 36154.217579830336,
        "timestamp": "2025-12-08T08:59:00.439571+00:00",
        "meta_object_name": "XM-3 (RHYTHM)",
        "meta_object_id": "2005-008A",
        "meta_epoch": "2025-12-07T22:50:49.236864",
        "meta_mean_motion": 0.989542,
        "meta_eccentricity": 0.00012808,
        "meta_inclination": 0.1621,
        "meta_ra_of_asc_node": 81.1065,
        "meta_arg_of_pericenter": 261.5822,
        "meta_mean_anomaly": 214.0283,
        "meta_ephemeris_type": 0,
        "meta_classification_type": "U",
        "meta_norad_cat_id": 28626,
        "meta_element_set_no": 999,
        "meta_rev_at_epoch": 4070,
        "meta_bstar": 0,
        "meta_mean_motion_dot": -2.61e-06,
        "meta_mean_motion_ddot": 0,
        "tle_line1": "1 28626U 05008A   25341.95195876 -.00000261  00000+0  00000+0 0  9990",
        "tle_line2": "2 28626   0.1621  81.1065 0001280 261.5822 214.0283  0.98954200 40702"
      },
      "geometry": {
        "type": "Point",
        "coordinates": [
          -12.827555055878468,
          -0.1587417141650456
        ]
      }
    },
    {
      "type": "Feature",
      "properties": {
        "norad_id": 28659,
        "name": "DIRECTV 8",
        "group": "intelsat",
        "lat": 0.03830757613029107,
        "lon": 93.07336727253103,
        "alt_km": 35799.50853520895,
        "timestamp": "2025-12-08T08:59:00.439583+00:00",
        "meta_object_name": "DIRECTV 8",
        "meta_object_id": "2005-019A",
        "meta_epoch": "2025-12-07T16:29:36.045600",
        "meta_mean_motion": 1.00271412,
        "meta_eccentricity": 0.00032344,
        "meta_inclination": 0.0172,
        "meta_ra_of_asc_node": 353.7785,
        "meta_arg_of_pericenter": 266.4818,
        "meta_mean_anomaly": 304.7984,
        "meta_ephemeris_type": 0,
        "meta_classification_type": "U",
        "meta_norad_cat_id": 28659,
        "meta_element_set_no": 999,
        "meta_rev_at_epoch": 7515,
        "meta_bstar": 0,
        "meta_mean_motion_dot": 5e-08,
        "meta_mean_motion_ddot": 0,
        "tle_line1": "1 28659U 05019A   25341.68722275  .00000005  00000+0  00000+0 0  9992",
        "tle_line2": "2 28659   0.0172 353.7785 0003234 266.4818 304.7984  1.00271412 75158"
      },
      "geometry": {
        "type": "Point",
        "coordinates": [
          93.07336727253103,
          0.03830757613029107
        ]
      }
    },
    {
      "type": "Feature",
      "properties": {
        "norad_id": 28702,
        "name": "GALAXY 28 (G-28)",
        "group": "intelsat",
        "lat": 1.8975022975306506,
        "lon": 123.39173092461303,
        "alt_km": 35793.89828937009,
        "timestamp": "2025-12-08T08:59:00.439595+00:00",
        "meta_object_name": "GALAXY 28 (G-28)",
        "meta_object_id": "2005-022A",
        "meta_epoch": "2025-12-07T21:46:26.744736",
        "meta_mean_motion": 1.00271436,
        "meta_eccentricity": 0.00026502,
        "meta_inclination": 2.8063,
        "meta_ra_of_asc_node": 81.3385,
        "meta_arg_of_pericenter": 177.063,
        "meta_mean_anomaly": 56.4479,
        "meta_ephemeris_type": 0,
        "meta_classification_type": "U",
        "meta_norad_cat_id": 28702,
        "meta_element_set_no": 999,
        "meta_rev_at_epoch": 5005,
        "meta_bstar": 0,
        "meta_mean_motion_dot": -1.85e-06,
        "meta_mean_motion_ddot": 0,
        "tle_line1": "1 28702U 05022A   25341.90725399 -.00000185  00000+0  00000+0 0  9990",
        "tle_line2": "2 28702   2.8063  81.3385 0002650 177.0630  56.4479  1.00271436 50054"
      },
      "geometry": {
        "type": "Point",
        "coordinates": [
          123.39173092461303,
          1.8975022975306506
        ]
      }
    },
    {
      "type": "Feature",
      "properties": {
        "norad_id": 29236,
        "name": "GALAXY 16 (G-16)",
        "group": "intelsat",
        "lat": -0.005522136188293029,
        "lon": 113.10497364312091,
        "alt_km": 35797.32718431694,
        "timestamp": "2025-12-08T08:59:00.439607+00:00",
        "meta_object_name": "GALAXY 16 (G-16)",
        "meta_object_id": "2006-023A",
        "meta_epoch": "2025-12-07T20:00:44.370432",
        "meta_mean_motion": 1.00271142,
        "meta_eccentricity": 0.00029877,
        "meta_inclination": 0.0026,
        "meta_ra_of_asc_node": 109.0487,
        "meta_arg_of_pericenter": 154.9453,
        "meta_mean_anomaly": 14.0345,
        "meta_ephemeris_type": 0,
        "meta_classification_type": "U",
        "meta_norad_cat_id": 29236,
        "meta_element_set_no": 999,
        "meta_rev_at_epoch": 7105,
        "meta_bstar": 0,
        "meta_mean_motion_dot": -1.24e-06,
        "meta_mean_motion_ddot": 0,
        "tle_line1": "1 29236U 06023A   25341.83384688 -.00000124  00000+0  00000+0 0  9992",
        "tle_line2": "2 29236   0.0026 109.0487 0002987 154.9453  14.0345  1.00271142 71056"
      },
      "geometry": {
        "type": "Point",
        "coordinates": [
          113.10497364312091,
          -0.005522136188293029
        ]
      }
    },
    {
      "type": "Feature",
      "properties": {
        "norad_id": 29494,
        "name": "DIRECTV 9S",
        "group": "intelsat",
        "lat": 0.9135188533342119,
        "lon": 110.88466909055184,
        "alt_km": 35797.885658113184,
        "timestamp": "2025-12-08T08:59:00.439618+00:00",
        "meta_object_name": "DIRECTV 9S",
        "meta_object_id": "2006-043A",
        "meta_epoch": "2025-12-07T21:42:49.592160",
        "meta_mean_motion": 1.00270591,
        "meta_eccentricity": 0.00032174,
        "meta_inclination": 1.9274,
        "meta_ra_of_asc_node": 83.2575,
        "meta_arg_of_pericenter": 175.8027,
        "meta_mean_anomaly": 42.3545,
        "meta_ephemeris_type": 0,
        "meta_classification_type": "U",
        "meta_norad_cat_id": 29494,
        "meta_element_set_no": 999,
        "meta_rev_at_epoch": 4946,
        "meta_bstar": 0,
        "meta_mean_motion_dot": -1.11e-06,
        "meta_mean_motion_ddot": 0,
        "tle_line1": "1 29494U 06043A   25341.90474065 -.00000111  00000+0  00000+0 0  9993",
        "tle_line2": "2 29494   1.9274  83.2575 0003217 175.8027  42.3545  1.00270591 49467"
      },
      "geometry": {
        "type": "Point",
        "coordinates": [
          110.88466909055184,
          0.9135188533342119
        ]
      }
    }
  ]
}